{
  "type": "FeatureCollection",
  "features": [
    {
      "type": "Feature",
      "properties": {
        "norad_id": 63632,
        "name": "SHENZHOU-20 (SZ-20)",
        "group": "stations",
        "lat": 39.30263777223609,
        "lon": 141.50338839801324,
        "alt_km": 388.0029970096375,
        "timestamp": "2025-12-03T08:58:44.795433+00:00",
        "meta_object_name": "SHENZHOU-20 (SZ-20)",
        "meta_object_id": "2025-082A",
        "meta_epoch": "2025-12-02T14:12:45.225504",
        "meta_mean_motion": 15.58538929,
        "meta_eccentricity": 0.00102296,
        "meta_inclination": 41.4674,
        "meta_ra_of_asc_node": 78.2835,
        "meta_arg_of_pericenter": 314.561,
        "meta_mean_anomaly": 45.4392,
        "meta_ephemeris_type": 0,
        "meta_classification_type": "U",
        "meta_norad_cat_id": 63632,
        "meta_element_set_no": 999,
        "meta_rev_at_epoch": 25530,
        "meta_bstar": 0.00035376094,
        "meta_mean_motion_dot": 0.00027659,
        "meta_mean_motion_ddot": 0,
        "tle_line1": "1 63632U 25082A   25336.59219011  .00027659  00000+0  35376-3 0  9999",
        "tle_line2": "2 63632  41.4674  78.2835 0010229 314.5610  45.4392 15.58538929255302"
      },
      "geometry": {
        "type": "Point",
        "coordinates": [
          141.50338839801324,
          39.30263777223609
        ]
      }
    },
    {
      "type": "Feature",
      "properties": {
        "norad_id": 64751,
        "name": "PROGRESS-MS 31",
        "group": "stations",
        "lat": -34.19502645326869,
        "lon": 156.2734317303753,
        "alt_km": 423.87570554843296,
        "timestamp": "2025-12-03T08:58:44.795443+00:00",
        "meta_object_name": "PROGRESS-MS 31",
        "meta_object_id": "2025-146A",
        "meta_epoch": "2025-12-02T02:12:50.598720",
        "meta_mean_motion": 15.49237019,
        "meta_eccentricity": 0.00036389,
        "meta_inclination": 51.6314,
        "meta_ra_of_asc_node": 195.1903,
        "meta_arg_of_pericenter": 193.8265,
        "meta_mean_anomaly": 166.2625,
        "meta_ephemeris_type": 0,
        "meta_classification_type": "U",
        "meta_norad_cat_id": 64751,
        "meta_element_set_no": 999,
        "meta_rev_at_epoch": 675,
        "meta_bstar": 0.00017380747,
        "meta_mean_motion_dot": 9.217e-05,
        "meta_mean_motion_ddot": 0,
        "tle_line1": "1 64751U 25146A   25336.09225230  .00009217  00000+0  17381-3 0  9994",
        "tle_line2": "2 64751  51.6314 195.1903 0003638 193.8265 166.2625 15.49237019  6754"
      },
      "geometry": {
        "type": "Point",
        "coordinates": [
          156.2734317303753,
          -34.19502645326869
        ]
      }
    },
    {
      "type": "Feature",
      "properties": {
        "norad_id": 64786,
        "name": "TIANZHOU-9",
        "group": "stations",
        "lat": 39.302638095377,
        "lon": 141.5033900254619,
        "alt_km": 388.0029971033973,
        "timestamp": "2025-12-03T08:58:44.795453+00:00",
        "meta_object_name": "TIANZHOU-9",
        "meta_object_id": "2025-149A",
        "meta_epoch": "2025-12-02T14:12:45.225504",
        "meta_mean_motion": 15.58538929,
        "meta_eccentricity": 0.00102296,
        "meta_inclination": 41.4674,
        "meta_ra_of_asc_node": 78.2835,
        "meta_arg_of_pericenter": 314.561,
        "meta_mean_anomaly": 45.4392,
        "meta_ephemeris_type": 0,
        "meta_classification_type": "U",
        "meta_norad_cat_id": 64786,
        "meta_element_set_no": 999,
        "meta_rev_at_epoch": 25530,
        "meta_bstar": 0.00035376094,
        "meta_mean_motion_dot": 0.00027659,
        "meta_mean_motion_ddot": 0,
        "tle_line1": "1 64786U 25149A   25336.59219011  .00027659  00000+0  35376-3 0  9994",
        "tle_line2": "2 64786  41.4674  78.2835 0010229 314.5610  45.4392 15.58538929255303"
      },
      "geometry": {
        "type": "Point",
        "coordinates": [
          141.5033900254619,
          39.302638095377
        ]
      }
    },
    {
      "type": "Feature",
      "properties": {
        "norad_id": 65077,
        "name": "CREW DRAGON 11",
        "group": "stations",
        "lat": -34.19502555861829,
        "lon": 156.27343295854374,
        "alt_km": 423.8757055514434,
        "timestamp": "2025-12-03T08:58:44.795464+00:00",
        "meta_object_name": "CREW DRAGON 11",
        "meta_object_id": "2025-166A",
        "meta_epoch": "2025-12-02T02:12:50.598720",
        "meta_mean_motion": 15.49237019,
        "meta_eccentricity": 0.00036389,
        "meta_inclination": 51.6314,
        "meta_ra_of_asc_node": 195.1903,
        "meta_arg_of_pericenter": 193.8265,
        "meta_mean_anomaly": 166.2625,
        "meta_ephemeris_type": 0,
        "meta_classification_type": "U",
        "meta_norad_cat_id": 65077,
        "meta_element_set_no": 999,
        "meta_rev_at_epoch": 214,
        "meta_bstar": 0.00017380747,
        "meta_mean_motion_dot": 9.217e-05,
        "meta_mean_motion_ddot": 0,
        "tle_line1": "1 65077U 25166A   25336.09225230  .00009217  00000+0  17381-3 0  9998",
        "tle_line2": "2 65077  51.6314 195.1903 0003638 193.8265 166.2625 15.49237019  2145"
      },
      "geometry": {
        "type": "Point",
        "coordinates": [
          156.27343295854374,
          -34.19502555861829
        ]
      }
    },
    {
      "type": "Feature",
      "properties": {
        "norad_id": 65304,
        "name": "DRAGON CRS-33",
        "group": "stations",
        "lat": -34.19502513259392,
        "lon": 156.2734335433863,
        "alt_km": 423.8757055528822,
        "timestamp": "2025-12-03T08:58:44.795474+00:00",
        "meta_object_name": "DRAGON CRS-33",
        "meta_object_id": "2025-186A",
        "meta_epoch": "2025-12-02T02:12:50.598720",
        "meta_mean_motion": 15.49237019,
        "meta_eccentricity": 0.00036389,
        "meta_inclination": 51.6314,
        "meta_ra_of_asc_node": 195.1903,
        "meta_arg_of_pericenter": 193.8265,
        "meta_mean_anomaly": 166.2625,
        "meta_ephemeris_type": 0,
        "meta_classification_type": "U",
        "meta_norad_cat_id": 65304,
        "meta_element_set_no": 999,
        "meta_rev_at_epoch": 11,
        "meta_bstar": 0.00017380747,
        "meta_mean_motion_dot": 9.217e-05,
        "meta_mean_motion_ddot": 0,
        "tle_line1": "1 65304U 25186A   25336.09225230  .00009217  00000+0  17381-3 0  9993",
        "tle_line2": "2 65304  51.6314 195.1903 0003638 193.8265 166.2625 15.49237019   113"
      },
      "geometry": {
        "type": "Point",
        "coordinates": [
          156.2734335433863,
          -34.19502513259392
        ]
      }
    },
    {
      "type": "Feature",
      "properties": {
        "norad_id": 65586,
        "name": "PROGRESS-MS 32",
        "group": "stations",
        "lat": -34.195024706570585,
        "lon": 156.27343412822745,
        "alt_km": 423.8757055543165,
        "timestamp": "2025-12-03T08:58:44.795484+00:00",
        "meta_object_name": "PROGRESS-MS 32",
        "meta_object_id": "2025-204A",
        "meta_epoch": "2025-12-02T02:12:50.598720",
        "meta_mean_motion": 15.49237019,
        "meta_eccentricity": 0.00036389,
        "meta_inclination": 51.6314,
        "meta_ra_of_asc_node": 195.1903,
        "meta_arg_of_pericenter": 193.8265,
        "meta_mean_anomaly": 166.2625,
        "meta_ephemeris_type": 0,
        "meta_classification_type": "U",
        "meta_norad_cat_id": 65586,
        "meta_element_set_no": 999,
        "meta_rev_at_epoch": 27,
        "meta_bstar": 0.00017380747,
        "meta_mean_motion_dot": 9.217e-05,
        "meta_mean_motion_ddot": 0,
        "tle_line1": "1 65586U 25204A   25336.09225230  .00009217  00000+0  17381-3 0  9996",
        "tle_line2": "2 65586  51.6314 195.1903 0003638 193.8265 166.2625 15.49237019   272"
      },
      "geometry": {
        "type": "Point",
        "coordinates": [
          156.27343412822745,
          -34.195024706570585
        ]
      }
    },
    {
      "type": "Feature",
      "properties": {
        "norad_id": 65616,
        "name": "CYGNUS NG-23",
        "group": "stations",
        "lat": -34.195024067534554,
        "lon": 156.2734350054906,
        "alt_km": 423.87570555646835,
        "timestamp": "2025-12-03T08:58:44.795499+00:00",
        "meta_object_name": "CYGNUS NG-23",
        "meta_object_id": "2025-208A",
        "meta_epoch": "2025-12-02T02:12:50.598720",
        "meta_mean_motion": 15.49237019,
        "meta_eccentricity": 0.00036389,
        "meta_inclination": 51.6314,
        "meta_ra_of_asc_node": 195.1903,
        "meta_arg_of_pericenter": 193.8265,
        "meta_mean_anomaly": 166.2625,
        "meta_ephemeris_type": 0,
        "meta_classification_type": "U",
        "meta_norad_cat_id": 65616,
        "meta_element_set_no": 999,
        "meta_rev_at_epoch": 22,
        "meta_bstar": 0.00017380747,
        "meta_mean_motion_dot": 9.217e-05,
        "meta_mean_motion_ddot": 0,
        "tle_line1": "1 65616U 25208A   25336.09225230  .00009217  00000+0  17381-3 0  9994",
        "tle_line2": "2 65616  51.6314 195.1903 0003638 193.8265 166.2625 15.49237019   221"
      },
      "geometry": {
        "type": "Point",
        "coordinates": [
          156.2734350054906,
          -34.195024067534554
        ]
      }
    }
  ]
}